ONEWEB-0363             
1 49289U 21090L   25186.42578969 -.00000009  00000+0 -55236-4 0  9991
2 49289  87.9272 343.5097 0001457 100.8727 259.2570 13.20769614184532
ONEWEB-0364             
1 49290U 21090M   25186.46367336  .00000058  00000+0  11148-3 0  9996
2 49290  87.9268 343.5319 0001761  99.4160 260.7173 13.20770183185673
ONEWEB-0365             
1 49291U 21090N   25186.55232300  .00000040  00000+0  68584-4 0  9997
2 49291  87.9208  13.8530 0001963  90.5957 269.5401 13.19723865180703
ONEWEB-0366             
1 49292U 21090P   25186.49102926  .00000017  00000+0  10559-4 0  9994
2 49292  87.9040 358.6976 0001752  92.5263 267.6067 13.14502185182018
ONEWEB-0367             
1 49293U 21090Q   25186.49996571 -.00000031  00000+0 -10804-3 0  9992
2 49293  87.9271 343.4906 0002054  91.7929 268.3440 13.20773558184067
ONEWEB-0368             
1 49294U 21090R   25186.47313899  .00000073  00000+0  14748-3 0  9992
2 49294  87.9274 343.5290 0002124 118.8768 241.2579 13.20773144185210
ONEWEB-0369             
1 49295U 21090S   25186.54758717  .00000072  00000+0  14728-3 0  9990
2 49295  87.9214  13.8831 0001928  91.8572 268.2782 13.19724760180697
ONEWEB-0370             
1 49296U 21090T   25186.43368676  .00000057  00000+0  10764-3 0  9999
2 49296  87.9271 343.5090 0001907  84.1955 275.9396 13.20772068184098
